IRIDIUM 36              
1 24967U 97056C   24347.72799858  .00000758  00000+0  24799-3 0  9993
2 24967  86.3970 251.2783 0001941  81.5530 278.5888 14.37288102425438
IRIDIUM 39              
1 25042U 97069D   24347.81181913  .00001339  00000+0  34945-3 0  9999
2 25042  86.3901 291.0451 0016763 202.6661 157.3804 14.48712147422230
IRIDIUM 38              
1 25043U 97069E   24347.39849048  .00001008  00000+0  32844-3 0  9992
2 25043  86.3945 311.7645 0002837  45.0799 315.0629 14.37774271419117
IRIDIUM 42              
1 25077U 97077A   24347.45557795  .00000967  00000+0  32609-3 0  9992
2 25077  86.3949 317.6811 0002519  71.0295 289.1174 14.36035923414399
IRIDIUM 44              
1 25078U 97077B   24347.35678590  .00000937  00000+0  29210-3 0  9990
2 25078  86.3941 300.1354 0000758  39.9289 320.1966 14.39904389416818
IRIDIUM 45              
1 25104U 97082A   24347.48327282  .00018306  00000+0  82885-3 0  9995
2 25104  86.3625 137.9002 0136681 307.0719  51.8085 15.12679408423726
IRIDIUM 24              
1 25105U 97082B   24347.70732612  .00000949  00000+0  28480-3 0  9993
2 25105  86.3923 159.3473 0010758 344.2434  15.8430 14.41727005416590
IRIDIUM 51              
1 25262U 98018A   24347.42029843  .00032997  00000+0  11303-2 0  9994
2 25262  86.3900 147.1524 0115520 240.2505 118.7208 15.23804114418437
